SatCatId,ObjectName,LaunchYear,OrbitalPeriod,LaunchMass,StatusCode,Inclination,Status,UcsData,OrbitClassEstimated,LaunchSiteCountry,Owner,UseType,Purpose,LaunchVehicleClass,TLE1,TLE2,MeanMotion,Eccentricity,OrbitClass
58999,STARLINK-31440,2024,94.11,-1.0,+,53.16,Active,0,LEO,USA,USA,Unknown,Unknown,Unknown,1 58999U 24036B   25110.35994543  .00000327  00000+0  23149-4 0  9990,2 58999  53.1598 139.7042 0001125  89.5541 270.5588 15.30197425 65564,15.30197425,0.0001125,LEO
59000,STARLINK-31529,2024,94.11,-1.0,+,53.16,Active,0,LEO,USA,USA,Unknown,Unknown,Unknown,1 59000U 24036C   25110.50798686 -.00004074  00000+0 -12545-3 0  9993,2 59000  53.1591 137.0862 0000851  89.1659 270.9439 15.30211000 65883,15.30211,8.51e-05,LEO
59002,STARLINK-31431,2024,94.11,-1.0,+,53.16,Active,0,LEO,USA,USA,Unknown,Unknown,Unknown,1 59002U 24036E   25110.46958274 -.00000527  00000+0 -56702-5 0  9995,2 59002  53.1593 139.6799 0001135  81.5812 278.5317 15.30196283 65858,15.30196283,0.0001135,LEO
59004,STARLINK-31435,2024,94.11,-1.0,+,53.16,Active,0,LEO,USA,USA,Unknown,Unknown,Unknown,1 59004U 24036G   25110.49163401  .00002571  00000+0  98883-4 0  9994,2 59004  53.1587 139.1041 0001137  90.6021 269.5110 15.30202410 65865,15.3020241,0.0001137,LEO
59005,STARLINK-31484,2024,94.11,-1.0,+,53.16,Active,0,LEO,USA,USA,Unknown,Unknown,Unknown,1 59005U 24036H   25110.49479349  .00000145  00000+0  17019-4 0  9993,2 59005  53.1595 139.1227 0000940  94.3237 265.7871 15.30202880 65911,15.3020288,9.4e-05,LEO
59006,STARLINK-31450,2024,94.11,-1.0,+,53.16,Active,0,LEO,USA,USA,Unknown,Unknown,Unknown,1 59006U 24036J   25110.37156010  .00007332  00000+0  25934-3 0  9997,2 59006  53.1577 139.7759 0002941 102.4165 257.7165 15.30214427 65830,15.30214427,0.0002941,LEO
59007,STARLINK-31456,2024,94.11,-1.0,+,53.16,Active,0,LEO,USA,USA,Unknown,Unknown,Unknown,1 59007U 24036K   25110.49796091  .00007600  00000+0  26846-3 0  9991,2 59007  53.1570 139.1434 0000904  82.3460 277.7644 15.30201158 65852,15.30201158,9.04e-05,LEO
59008,STARLINK-31460,2024,94.11,-1.0,+,53.16,Active,0,LEO,USA,USA,Unknown,Unknown,Unknown,1 59008U 24036L   25110.39688073  .00002669  00000+0  10222-3 0  9992,2 59008  53.1582 139.9380 0001108  82.5250 277.5877 15.30197909 65843,15.30197909,0.0001108,LEO
59009,STARLINK-31488,2024,94.11,-1.0,+,53.16,Active,0,LEO,USA,USA,Unknown,Unknown,Unknown,1 59009U 24036M   25110.49374185  .00000387  00000+0  25180-4 0  9995,2 59009  53.1604 139.1167 0000856  85.3735 274.7364 15.30207718 65853,15.30207718,8.56e-05,LEO
59010,STARLINK-31528,2024,94.11,-1.0,+,53.16,Active,0,LEO,USA,USA,Unknown,Unknown,Unknown,1 59010U 24036N   25110.48331113  .00004709  00000+0  17105-3 0  9999,2 59010  53.1595 139.7577 0001430  95.6083 264.5080 15.30196328 65850,15.30196328,0.000143,LEO
59011,STARLINK-31491,2024,94.11,-1.0,+,53.16,Active,0,LEO,USA,USA,Unknown,Unknown,Unknown,1 59011U 24036P   25109.50464787  .00009006  00000+0  31580-3 0  9993,2 59011  53.1591 144.3133 0001463 100.2398 259.8768 15.30202317 65682,15.30202317,0.0001463,LEO
59012,STARLINK-31465,2024,94.11,-1.0,+,53.16,Active,0,LEO,USA,USA,Unknown,Unknown,Unknown,1 59012U 24036Q   25110.47908222  .00000850  00000+0  40841-4 0  9998,2 59012  53.1597 139.7336 0001446  71.0765 289.0393 15.30194003 65845,15.30194003,0.0001446,LEO
59013,STARLINK-31389,2024,94.11,-1.0,+,53.16,Active,0,LEO,USA,USA,Unknown,Unknown,Unknown,1 59013U 24036R   25110.22098950 -.00000174  00000+0  62598-5 0  9994,2 59013  53.1602 140.9661 0001206  71.7925 288.3207 15.30196937 65852,15.30196937,0.0001206,LEO
59014,STARLINK-31454,2024,94.11,-1.0,+,53.16,Active,0,LEO,USA,USA,Unknown,Unknown,Unknown,1 59014U 24036S   25110.47591961 -.00001241  00000+0 -29771-4 0  9994,2 59014  53.1589 139.7147 0001158  81.2864 278.8268 15.30202194 65849,15.30202194,0.0001158,LEO
59015,STARLINK-31521,2024,94.11,-1.0,+,53.16,Active,0,LEO,USA,USA,Unknown,Unknown,Unknown,1 59015U 24036T   25110.47486128  .00005241  00000+0  18888-3 0  9991,2 59015  53.1586 139.7077 0001396  86.9138 273.2022 15.30213878 65847,15.30213878,0.0001396,LEO
59016,STARLINK-31526,2024,94.11,-1.0,+,53.16,Active,0,LEO,USA,USA,Unknown,Unknown,Unknown,1 59016U 24036U   25109.42976153  .00001367  00000+0  58301-4 0  9997,2 59016  53.1596 118.9449 0001195  92.1450 267.9687 15.30189063 66031,15.30189063,0.0001195,LEO
59017,STARLINK-31406,2024,93.53,-1.0,P,53.16,Active,0,LEO,USA,USA,Unknown,Unknown,Unknown,1 59017U 24036V   25110.38200175  .00000729  00000+0  28209-4 0  9994,2 59017  53.1610 137.7202 0001072  83.9733 276.1394 15.39617321 65860,15.39617321,0.0001072,LEO
59018,STARLINK-31527,2024,94.11,-1.0,+,53.16,Active,0,LEO,USA,USA,Unknown,Unknown,Unknown,1 59018U 24036W   25110.40004603 -.00000778  00000+0 -14144-4 0  9995,2 59018  53.1589 139.9543 0001079  77.1773 282.9348 15.30196459 65841,15.30196459,0.0001079,LEO
59019,STARLINK-31436,2024,94.11,-1.0,+,53.16,Active,0,LEO,USA,USA,Unknown,Unknown,Unknown,1 59019U 24036X   25110.48540851  .00001446  00000+0  60924-4 0  9992,2 59019  53.1585 139.7694 0001086  59.0121 301.0987 15.30201245 65849,15.30201245,0.0001086,LEO
59020,TJS-11,2024,1436.08,-1.0,+,4.82,Active,0,GSO,PRC,China,Unknown,Unknown,Unknown,1 59020U 24037A   25110.76271645 -.00000368  00000+0  00000+0 0  9995,2 59020   4.8177 322.9135 0004018  95.5520 185.5480  1.00272651  4367,1.00272651,0.0004018,GSO
59023,STARLINK-30996,2024,94.37,-1.0,+,43.0,Active,0,LEO,USA,USA,Unknown,Unknown,Unknown,1 59023U 24038A   25109.34546756  .00023591  00000+0  90780-3 0  9999,2 59023  43.0016  57.0408 0000924 254.2139 105.8610 15.25946925 66540,15.25946925,9.24e-05,LEO
59024,STARLINK-31006,2024,94.26,-1.0,+,43.0,Active,0,LEO,USA,USA,Unknown,Unknown,Unknown,1 59024U 24038B   25109.98051668 -.00000765  00000+0 -18267-4 0  9994,2 59024  43.0030   4.7400 0001377 254.3483 105.7217 15.27579674 65832,15.27579674,0.0001377,LEO
59025,STARLINK-31178,2024,94.37,-1.0,+,43.0,Active,0,LEO,USA,USA,Unknown,Unknown,Unknown,1 59025U 24038C   25109.34319582  .00007712  00000+0  30407-3 0  9993,2 59025  43.0036  57.0249 0001480 267.8689  92.1993 15.25939435 65061,15.25939435,0.000148,LEO
59026,STARLINK-31227,2024,94.37,-1.0,+,43.0,Active,0,LEO,USA,USA,Unknown,Unknown,Unknown,1 59026U 24038D   25109.99552650 -.00022524  00000+0 -85469-3 0  9998,2 59026  43.0006  53.3200 0001311 254.9124 105.1582 15.25877015 65276,15.25877015,0.0001311,LEO
59027,STARLINK-30863,2024,94.37,-1.0,+,43.0,Active,0,LEO,USA,USA,Unknown,Unknown,Unknown,1 59027U 24038E   25109.97516308  .00003131  00000+0  12949-3 0  9991,2 59027  42.9891  53.1537 0002168 173.9535 186.1343 15.25910999 65177,15.25910999,0.0002168,LEO
59028,STARLINK-31206,2024,94.27,-1.0,+,43.0,Active,0,LEO,USA,USA,Unknown,Unknown,Unknown,1 59028U 24038F   25109.68489132  .00004429  00000+0  17049-3 0  9991,2 59028  42.9995 351.8208 0001341 253.8366 106.2338 15.27553224 65979,15.27553224,0.0001341,LEO
59029,STARLINK-31224,2024,94.37,-1.0,+,43.0,Active,0,LEO,USA,USA,Unknown,Unknown,Unknown,1 59029U 24038G   25109.99098454 -.00012439  00000+0 -46567-3 0  9998,2 59029  43.0010  53.2915 0001180 269.6513  90.4202 15.25968619 65271,15.25968619,0.000118,LEO
59030,STARLINK-31186,2024,94.37,-1.0,+,43.0,Active,0,LEO,USA,USA,Unknown,Unknown,Unknown,1 59030U 24038H   25109.98874312  .00002778  00000+0  11598-3 0  9993,2 59030  42.9968  53.2740 0001775 321.7850  38.2875 15.25918006 65274,15.25918006,0.0001775,LEO
59031,STARLINK-31211,2024,94.37,-1.0,+,43.0,Active,0,LEO,USA,USA,Unknown,Unknown,Unknown,1 59031U 24038J   25109.85556573 -.00001568  00000+0 -50145-4 0  9996,2 59031  43.0006  54.0017 0001389 280.8407  79.2288 15.25896168 65143,15.25896168,0.0001389,LEO
59032,STARLINK-30862,2024,94.27,-1.0,P,43.0,Active,0,LEO,USA,USA,Unknown,Unknown,Unknown,1 59032U 24038K   25109.82802623  .00000129  00000+0  14190-4 0  9994,2 59032  42.9987  45.1699 0000669 245.5528 114.5253 15.27579602 65248,15.27579602,6.69e-05,LEO
59033,STARLINK-31210,2024,94.27,-1.0,+,43.0,Active,0,LEO,USA,USA,Unknown,Unknown,Unknown,1 59033U 24038L   25109.87202482  .00000597  00000+0  31196-4 0  9991,2 59033  43.0039  52.3900 0000675 214.2627 145.8181 15.27574859 65330,15.27574859,6.75e-05,LEO
59034,STARLINK-31231,2024,94.27,-1.0,+,43.01,Active,0,LEO,USA,USA,Unknown,Unknown,Unknown,1 59034U 24038M   25109.34504945  .00005179  00000+0  19743-3 0  9997,2 59034  43.0077  55.3145 0002046 287.0813  72.9815 15.27607151 65084,15.27607151,0.0002046,LEO
59035,STARLINK-31207,2024,94.27,-1.0,+,43.0,Active,0,LEO,USA,USA,Unknown,Unknown,Unknown,1 59035U 24038N   25109.99508369 -.00000367  00000+0 -38005-5 0  9993,2 59035  43.0017  51.5905 0001331 244.2434 115.8281 15.27575899 65358,15.27575899,0.0001331,LEO
59036,STARLINK-31217,2024,93.46,-1.0,P,43.0,Active,0,LEO,USA,USA,Unknown,Unknown,Unknown,1 59036U 24038P   25109.99834925  .00000158  00000+0  11061-4 0  9992,2 59036  43.0014 324.3891 0002291 251.3749 108.6859 15.40701999 66354,15.40701999,0.0002291,LEO
59037,STARLINK-31208,2024,94.37,-1.0,+,43.0,Active,0,LEO,USA,USA,Unknown,Unknown,Unknown,1 59037U 24038Q   25109.84637878  .00000683  00000+0  35962-4 0  9994,2 59037  43.0009  53.0470 0001572 269.6439  90.4232 15.25906534 65321,15.25906534,0.0001572,LEO
59038,STARLINK-31235,2024,94.27,-1.0,+,43.0,Active,0,LEO,USA,USA,Unknown,Unknown,Unknown,1 59038U 24038R   25109.86173918  .00000979  00000+0  45073-4 0  9999,2 59038  42.9995  52.3089 0000836 233.5064 126.5711 15.27579675 65279,15.27579675,8.36e-05,LEO
59039,STARLINK-31220,2024,94.37,-1.0,+,43.01,Active,0,LEO,USA,USA,Unknown,Unknown,Unknown,1 59039U 24038S   25109.84199374  .00000438  00000+0  26580-4 0  9994,2 59039  43.0055  53.9026 0001341 262.4550  97.6148 15.25910428 65253,15.25910428,0.0001341,LEO
59040,STARLINK-31225,2024,94.37,-1.0,+,43.0,Active,0,LEO,USA,USA,Unknown,Unknown,Unknown,1 59040U 24038T   25109.85287971  .00001851  00000+0  80560-4 0  9996,2 59040  42.9988  51.3419 0001009 247.6108 112.4636 15.25913291 65171,15.25913291,0.0001009,LEO
